[{"OBJECT_NAME":"STARLINK-36107","OBJECT_ID":"2025-288W","EPOCH":"2026-03-09T07:16:08.806944","MEAN_MOTION":15.27591966,"ECCENTRICITY":0.00013323,"INCLINATION":43.0022,"RA_OF_ASC_NODE":26.0239,"ARG_OF_PERICENTER":256.7609,"MEAN_ANOMALY":103.3094,"EPHEMERIS_TYPE":0,"CLASSIFICATION_TYPE":"U","NORAD_CAT_ID":66979,"ELEMENT_SET_NO":999,"REV_AT_EPOCH":1522,"BSTAR":0.00087468455,"MEAN_MOTION_DOT":0.00023894,"MEAN_MOTION_DDOT":0},{"OBJECT_NAME":"KUIPER-00177","OBJECT_ID":"2026-030C","EPOCH":"2026-03-09T22:40:13.687104","MEAN_MOTION":15.35467467,"ECCENTRICITY":0.00021592,"INCLINATION":51.8837,"RA_OF_ASC_NODE":217.7875,"ARG_OF_PERICENTER":172.5497,"MEAN_ANOMALY":187.5522,"EPHEMERIS_TYPE":0,"CLASSIFICATION_TYPE":"U","NORAD_CAT_ID":67766,"ELEMENT_SET_NO":999,"REV_AT_EPOCH":513,"BSTAR":-0.015747205,"MEAN_MOTION_DOT":-0.00515419,"MEAN_MOTION_DDOT":0}]
